NORAD_CAT_ID,OBJECT_NAME,OBJECT_TYPE,EPOCH,MEAN_MOTION,ECCENTRICITY,INCLINATION,RA_OF_ASC_NODE,ARG_OF_PERICENTER,MEAN_ANOMALY,BSTAR,MEAN_MOTION_DOT,MEAN_MOTION_DDOT,TLE_LINE0,TLE_LINE1,TLE_LINE2,SEMIMAJOR_AXIS,PERIOD,APOGEE,PERIGEE,DECAYED
53749.0,STARLINK-4680,PAYLOAD,2022-11-05 22:00:01,15.07647223,0.0001441999999999,53.2018,340.0105,40.628,70.6943,0.0034189,0.00052781,0.0,0 STARLINK-4680,1 53749U 22107BB  22309.91668981  .00052781  00000-0  34189-2 0  9994,2 53749  53.2018 340.0105 0001442  40.6280  70.6943 15.07647223  9660,6921.529,95.513,544.3919999999998,542.396,0.0
53749.0,STARLINK-4680,PAYLOAD,2022-11-06 14:00:01,15.07694157,0.0001738,53.2063,337.0236,38.0837,93.5676,-8.585899999999999e-05,-1.609e-05,0.0,0 STARLINK-4680,1 53749U 22107BB  22310.58334491 -.00001609  00000-0 -85859-4 0  9992,2 53749  53.2063 337.0236 0001738  38.0837  93.5676 15.07694157  1306,6921.385,95.51,544.453,542.047,0.0
53749.0,STARLINK-4680,PAYLOAD,2022-11-07 22:00:00,15.07668793,0.0001450999999999,53.2138,331.0454,43.2965,129.2135,-0.00013888,-2.425e-05,0.0,0 STARLINK-4680,1 53749U 22107BB  22311.91667824 -.00002425  00000-0 -13888-3 0  9998,2 53749  53.2138 331.0454 0001451  43.2965 129.2135 15.07668793  1301,6921.4630000000025,95.512,544.332,542.323,0.0
53749.0,STARLINK-4680,PAYLOAD,2022-11-08 00:00:02,15.07676612,0.000145,53.2144,330.6716,45.9022,219.2321,0.0019371,0.00029708,0.0,0 STARLINK-4680,1 53749U 22107BB  22312.00002315  .00029708  00000-0  19371-2 0  9990,2 53749  53.2144 330.6716 0001450  45.9022 219.2321 15.07676612  9973,6921.439,95.511,544.307,542.3,0.0
53749.0,STARLINK-4680,PAYLOAD,2022-11-08 14:00:01,15.0770169,0.0001629999999999,53.216,328.0591,38.5481,154.3991,0.0020494,0.00031476,0.0,0 STARLINK-4680,1 53749U 22107BB  22312.58334491  .00031476  00000-0  20494-2 0  9999,2 53749  53.2160 328.0591 0001630  38.5481 154.3991 15.07701690  1306,6921.361999999999,95.51,544.355,542.099,0.0
53749.0,STARLINK-4680,PAYLOAD,2022-11-08 22:00:00,15.07680822,0.0001447,53.2165,326.5671,45.8544,157.3356,0.00087354,0.00013211,0.0,0 STARLINK-4680,1 53749U 22107BB  22312.91667824  .00013211  00000-0  87354-3 0  9991,2 53749  53.2165 326.5671 0001447  45.8544 157.3356 15.07680822 10110,6921.426,95.511,544.2919999999998,542.289,0.0
53749.0,STARLINK-4680,PAYLOAD,2022-11-09 14:00:01,15.07741759,0.0001745,53.2162,323.5837,42.0368,181.5525,-0.0076501999999999,-0.00116535,0.0,0 STARLINK-4680,1 53749U 22107BB  22313.58334491 -.00116535  00000-0 -76502-2 0  9993,2 53749  53.2162 323.5837 0001745  42.0368 181.5525 15.07741759  1307,6921.239000000001,95.507,544.312,541.8969999999998,0.0
53749.0,STARLINK-4680,PAYLOAD,2022-11-09 22:00:01,15.07390196,0.0001869,53.2169,322.0926,41.8994,192.0229,0.059391,0.00976441,0.0,0 STARLINK-4680,1 53749U 22107BB  22313.91668981  .00976441  00000-0  59391-1 0  9998,2 53749  53.2169 322.0926 0001869  41.8994 192.0229 15.07390196 10264,6922.315,95.529,545.474,542.887,0.0
53749.0,STARLINK-4680,PAYLOAD,2022-11-10 14:00:01,15.08790033,0.0001908,53.2168,319.1077,50.5607,204.4439,0.0074189999999999,0.00119633,0.0,0 STARLINK-4680,1 53749U 22107BB  22314.58334491  .00119633  00000-0  74190-2 0  9995,2 53749  53.2168 319.1077 0001908  50.5607 204.4439 15.08790033  1300,6918.033,95.441,541.2180000000002,538.578,0.0
53749.0,STARLINK-4680,PAYLOAD,2022-11-10 16:00:00,15.08941494,0.0001858,53.2171,318.7337,48.2476,299.6,-0.0097613999999999,-0.00152792,0.0,0 STARLINK-4680,1 53749U 22107BB  22314.66667824 -.00152792  00000-0 -97614-2 0  9994,2 53749  53.2171 318.7337 0001858  48.2476 299.6000 15.08941494 10387,6917.57,95.431,540.72,538.15,0.0
53749.0,STARLINK-4680,PAYLOAD,2022-11-10 22:00:00,15.08834567,0.0001727,53.2154,317.6017,53.2701,213.3615,0.0025258,0.00040134,0.0,0 STARLINK-4680,1 53749U 22107BB  22314.91667824  .00040134  00000-0  25258-2 0  9991,2 53749  53.2154 317.6017 0001727  53.2701 213.3615 15.08834567 10414,6917.897,95.438,540.957,538.567,0.0
53749.0,STARLINK-4680,PAYLOAD,2022-11-11 14:00:01,15.08898491,0.0001791,53.2154,314.6102,44.9661,244.8758,-0.0064926,-0.00102318,0.0,0 STARLINK-4680,1 53749U 22107BB  22315.58334491 -.00102318  00000-0 -64926-2 0  9996,2 53749  53.2154 314.6102 0001791  44.9661 244.8758 15.08898491  1300,6917.7019999999975,95.434,540.806,538.328,0.0
53749.0,STARLINK-4680,PAYLOAD,2022-11-11 16:00:01,15.08885556,0.0001757,53.2156,314.2354,46.1269,336.6892,-0.0065273,-0.0010282,0.0,0 STARLINK-4680,1 53749U 22107BB  22315.66668981 -.00102820  00000-0 -65273-2 0  9993,2 53749  53.2156 314.2354 0001757  46.1269 336.6892 15.08885556 10539,6917.741,95.435,540.822,538.391,0.0
53749.0,STARLINK-4680,PAYLOAD,2022-11-11 22:00:00,15.08802339,0.0001619,53.2157,313.1121,49.3161,252.1586,0.0037421,0.00059711,0.0,0 STARLINK-4680,1 53749U 22107BB  22315.91667824  .00059711  00000-0  37421-2 0  9998,2 53749  53.2157 313.1121 0001619  49.3161 252.1586 15.08802339  1308,6917.996,95.44,540.981,538.74,0.0
53749.0,STARLINK-4680,PAYLOAD,2022-11-12 08:00:01,15.0883775,0.0001833,53.216,311.2436,44.9147,1.0351,0.00096512,0.00015104,0.0,0 STARLINK-4680,1 53749U 22107BB  22316.33334491  .00015104  00000-0  96512-3 0  9991,2 53749  53.2160 311.2436 0001833  44.9147   1.0351 15.08837750 10635,6917.887,95.438,541.02,538.484,0.0
53749.0,STARLINK-4680,PAYLOAD,2022-11-12 14:00:01,15.08870003,0.0001740999999999,53.2159,310.1208,41.7921,282.8508,-0.0033504,-0.0005326,0.0,0 STARLINK-4680,1 53749U 22107BB  22316.58334491 -.00053260  00000-0 -33504-2 0  9996,2 53749  53.2159 310.1208 0001741  41.7921 282.8508 15.08870003  1306,6917.7890000000025,95.436,540.8580000000002,538.4490000000002,0.0
53749.0,STARLINK-4680,PAYLOAD,2022-11-12 22:00:00,15.08821382,0.0001557,53.2162,308.6229,46.3932,289.8609,0.00054579,8.405e-05,0.0,0 STARLINK-4680,1 53749U 22107BB  22316.91667824  .00008405  00000-0  54579-3 0  9997,2 53749  53.2162 308.6229 0001557  46.3932 289.8609 15.08821382 10713,6917.937,95.439,540.879,538.725,0.0
53749.0,STARLINK-4680,PAYLOAD,2022-11-13 14:00:01,15.08732893,0.000181,53.2169,305.6393,39.1027,320.2928,0.0097232,0.00157475,0.0,0 STARLINK-4680,1 53749U 22107BB  22317.58334491  .00157475  00000-0  97232-2 0  9996,2 53749  53.2169 305.6393 0001810  39.1027 320.2928 15.08732893  1303,6918.208000000001,95.444,541.325,538.821,0.0
53749.0,STARLINK-4680,PAYLOAD,2022-11-13 22:00:00,15.08841452,0.0001653,53.2167,304.1339,48.5508,322.4473,5.89e-05,6.5e-06,0.0,0 STARLINK-4680,1 53749U 22107BB  22317.91667824  .00000650  00000-0  58900-4 0  9995,2 53749  53.2167 304.1339 0001653  48.5508 322.4473 15.08841452  1309,6917.876,95.437,540.884,538.597,0.0
53749.0,STARLINK-4680,PAYLOAD,2022-11-14 14:00:01,15.08856378,0.0001814,53.2167,301.1434,43.9935,350.1837,-0.0037878,-0.00060096,0.0,0 STARLINK-4680,1 53749U 22107BB  22318.58334491 -.00060096  00000-0 -37878-2 0  9991,2 53749  53.2167 301.1434 0001814  43.9935 350.1837 15.08856378 10972,6917.83,95.437,540.95,538.44,0.0
53749.0,STARLINK-4680,PAYLOAD,2022-11-14 22:00:00,15.0885497,0.0001625,53.2172,299.6488,47.3252,358.4323,-0.0050188,-0.00079316,0.0,0 STARLINK-4680,1 53749U 22107BB  22318.91667824 -.00079316  00000-0 -50188-2 0  9991,2 53749  53.2172 299.6488 0001625  47.3252 358.4323 15.08854970  1302,6917.835,95.437,540.8240000000002,538.575,0.0
53749.0,STARLINK-4680,PAYLOAD,2022-11-15 08:00:01,15.08826737,0.000187,53.217,297.779,44.0576,106.2469,0.001761,0.00027839,0.0,0 STARLINK-4680,1 53749U 22107BB  22319.33335648  .00027839  00000-0  17610-2 0  9998,2 53749  53.2170 297.7790 0001870  44.0576 106.2469 15.08826737 11086,6917.920999999999,95.438,541.08,538.492,0.0
53749.0,STARLINK-4680,PAYLOAD,2022-11-15 14:00:01,15.08858428,0.0001725,53.2165,296.6534,44.0591,24.8669,-0.0037248,-0.00059112,0.0,0 STARLINK-4680,1 53749U 22107BB  22319.58334491 -.00059112  00000-0 -37248-2 0  9990,2 53749  53.2165 296.6534 0001725  44.0591  24.8669 15.08858428  1303,6917.824000000001,95.436,540.882,538.496,0.0
53749.0,STARLINK-4680,PAYLOAD,2022-11-15 22:00:00,15.08818161,0.0001571,53.2166,295.1561,49.8666,30.6512,0.0024339,0.00038637,0.0,0 STARLINK-4680,1 53749U 22107BB  22319.91667824  .00038637  00000-0  24339-2 0  9990,2 53749  53.2166 295.1561 0001571  49.8666  30.6512 15.08818161  1305,6917.946999999999,95.439,540.899,538.725,0.0
53749.0,STARLINK-4680,PAYLOAD,2022-11-16 00:00:00,15.08841471,0.0001585999999999,53.2168,294.7825,49.49800000000001,123.9086,-0.00012547,-2.284e-05,0.0,0 STARLINK-4680,1 53749U 22107BB  22320.00001157 -.00002284  00000-0 -12547-3 0  9993,2 53749  53.2168 294.7825 0001586  49.4980 123.9086 15.08841471 11185,6917.876,95.437,540.8380000000002,538.644,0.0
53749.0,STARLINK-4680,PAYLOAD,2022-11-16 14:00:01,15.08828415,0.0001698,53.2166,292.1687,41.7811,61.965,-9.5234e-05,-1.803e-05,0.0,0 STARLINK-4680,1 53749U 22107BB  22320.58335648 -.00001803  00000-0 -95234-4 0  9992,2 53749  53.2166 292.1687 0001698  41.7811  61.9650 15.08828415  1307,6917.916,95.438,540.955,538.606,0.0
53749.0,STARLINK-4680,PAYLOAD,2022-11-16 22:00:08,15.0883989,0.0001708,53.2171,290.6737,47.0468,68.6527,-0.00020092,-3.484e-05,0.0,0 STARLINK-4680,1 53749U 22107BB  22320.91675926 -.00003484  00000-0 -20092-3 0  9991,2 53749  53.2171 290.6737 0001708  47.0468  68.6527 15.08839890  1307,6917.880999999999,95.438,540.927,538.564,0.0
53749.0,STARLINK-4680,PAYLOAD,2022-11-17 06:00:00,15.08834004,0.0001833,53.2157,289.1727,50.4094,76.4836,0.00042605,6.498e-05,0.0,0 STARLINK-4680,1 53749U 22107BB  22321.25001157  .00006498  00000-0  42605-3 0  9998,2 53749  53.2157 289.1727 0001833  50.4094  76.4836 15.08834004 11375,6917.899,95.438,541.0319999999998,538.496,0.0
53749.0,STARLINK-4680,PAYLOAD,2022-11-17 14:00:01,15.08858797,0.0001703,53.2154,287.6753,50.4294,88.0573,-0.0037564,-0.00059608,0.0,0 STARLINK-4680,1 53749U 22107BB  22321.58334491 -.00059608  00000-0 -37564-2 0  9994,2 53749  53.2154 287.6753 0001703  50.4294  88.0573 15.08858797  1306,6917.823,95.436,540.866,538.51,0.0
